[
    {
        "Altitude(m)": 559025.4664298858,
        "Argument of Periapsis(deg)": 0.033114955553567506,
        "Eccentricity": 0.0,
        "Inclination(deg)": 53.0,
        "Latitude(deg)": 49.31216130179214,
        "Longitude(deg)": 155.35960522635756,
        "Mean Anomaly(deg)": 108.63986433788794,
        "RAAN(deg)": 139.95071684264008,
        "Satellite Name": "Starlink Shell 1 619",
        "Satellite Number": 619,
        "Semi-Major Axis(m)": 6931778.249405717,
        "Time(s)": 950
    },
    {
        "Altitude(m)": 558968.511283381,
        "Argument of Periapsis(deg)": 0.03346353403307874,
        "Eccentricity": 0.0,
        "Inclination(deg)": 53.0,
        "Latitude(deg)": 49.06323442500282,
        "Longitude(deg)": 156.19642781584636,
        "Mean Anomaly(deg)": 109.26669554144466,
        "RAAN(deg)": 139.9501980725626,
        "Satellite Name": "Starlink Shell 1 619",
        "Satellite Number": 619,
        "Semi-Major Axis(m)": 6931778.249405717,
        "Time(s)": 960
    },
    {
        "Altitude(m)": 558910.0521132337,
        "Argument of Periapsis(deg)": 0.03381211251258998,
        "Eccentricity": 0.0,
        "Inclination(deg)": 53.0,
        "Latitude(deg)": 48.80768515246772,
        "Longitude(deg)": 157.02441463042308,
        "Mean Anomaly(deg)": 109.89352674500137,
        "RAAN(deg)": 139.94967930248512,
        "Satellite Name": "Starlink Shell 1 619",
        "Satellite Number": 619,
        "Semi-Major Axis(m)": 6931778.249405717,
        "Time(s)": 970
    },
    {
        "Altitude(m)": 558850.124699693,
        "Argument of Periapsis(deg)": 0.034160690992101214,
        "Eccentricity": 0.0,
        "Inclination(deg)": 53.0,
        "Latitude(deg)": 48.54563812961835,
        "Longitude(deg)": 157.84350844037982,
        "Mean Anomaly(deg)": 110.52035794855807,
        "RAAN(deg)": 139.94916053240766,
        "Satellite Name": "Starlink Shell 1 619",
        "Satellite Number": 619,
        "Semi-Major Axis(m)": 6931778.249405717,
        "Time(s)": 980
    },
    {
        "Altitude(m)": 558788.7657694106,
        "Argument of Periapsis(deg)": 0.034509269471612446,
        "Eccentricity": 0.0,
        "Inclination(deg)": 53.0,
        "Latitude(deg)": 48.27721804128247,
        "Longitude(deg)": 158.65366552681598,
        "Mean Anomaly(deg)": 111.1471891521148,
        "RAAN(deg)": 139.9486417623302,
        "Satellite Name": "Starlink Shell 1 619",
        "Satellite Number": 619,
        "Semi-Major Axis(m)": 6931778.249405717,
        "Time(s)": 990
    }
]